OBJECT_NAME,OBJECT_ID,EPOCH,MEAN_MOTION,ECCENTRICITY,INCLINATION,RA_OF_ASC_NODE,ARG_OF_PERICENTER,MEAN_ANOMALY,EPHEMERIS_TYPE,CLASSIFICATION_TYPE,NORAD_CAT_ID,ELEMENT_SET_NO,REV_AT_EPOCH,BSTAR,MEAN_MOTION_DOT,MEAN_MOTION_DDOT
STARLINK-4377,2022-084AJ,2026-06-09T09:41:59.986464,15.05650816,.00015544,97.3837,219.8028,100.7213,259.4189,0,U,53221,999,21311,.25314396E-4,.308E-5,0
STARLINK-4356,2022-084AM,2026-06-09T10:41:48.050592,15.05654056,.000133,97.3835,219.7554,134.3547,225.7789,0,U,53224,999,21311,-.18492027E-4,-.324E-5,0
STARLINK-4358,2022-084AN,2026-06-09T09:55:54.009120,15.05648397,.00014938,97.3820,220.8428,98.0113,262.1284,0,U,53225,999,21318,.9423574E-5,.78E-6,0
STARLINK-4359,2022-084AP,2026-06-09T10:17:52.529280,15.05651819,.00015081,97.3876,219.7672,134.0511,226.0841,0,U,53226,999,21311,.46730446E-4,.617E-5,0
STARLINK-4366,2022-084AQ,2026-06-09T03:05:12.469920,15.05696803,.00025552,97.3865,220.5958,2.8709,357.2533,0,U,53227,999,21314,-.14779151E-2,-.21346E-3,0
STARLINK-4365,2022-084AR,2026-06-09T02:55:16.389408,15.05654964,.00011254,97.3854,219.5650,110.6421,249.4928,0,U,53228,999,21307,.53934478E-4,.721E-5,0
STARLINK-4367,2022-084AS,2026-06-09T03:13:09.714144,15.05653504,.00015181,97.3865,220.6002,106.4201,253.7193,0,U,53229,999,21314,.41903487E-4,.547E-5,0
STARLINK-4364,2022-084AT,2026-06-09T10:39:46.202400,15.05654988,.00018438,97.3839,220.9513,139.6713,220.4651,0,U,53230,999,21319,-.7530485E-5,-.166E-5,0
STARLINK-4370,2022-084AU,2026-06-09T04:32:54.928032,15.05652449,.00005608,97.3844,220.6723,88.2847,271.8444,0,U,53231,999,21315,.33117601E-4,.42E-5,0
STARLINK-4371,2022-084AV,2026-06-09T10:13:53.109696,15.05654417,.00016729,97.3849,219.7487,143.4267,216.7075,0,U,53232,999,21311,.41061534E-4,.535E-5,0
STARLINK-4372,2022-084AW,2026-06-09T11:38:06.303552,15.05217805,.00039887,97.3830,219.8144,50.4869,309.6710,0,U,53233,999,21312,-.21374602E-2,-.30418E-3,0
STARLINK-4368,2022-084AX,2026-06-09T14:00:04.000032,15.37347740,.00021063,97.6001,221.7536,112.5231,163.0281,0,U,53234,999,577,.39397183E-2,.146744E-2,0
STARLINK-4056,2022-086A,2026-06-09T05:56:17.676384,15.08831087,.0001384,53.1658,148.0480,81.7409,278.3739,0,U,53242,999,21513,.52961E-4,.555E-5,0
STARLINK-4047,2022-086B,2026-06-09T06:51:13.516704,15.08836562,.00015461,53.1642,152.5688,63.6489,296.4661,0,U,53243,999,21509,-.89264316E-4,-.1708E-4,0
STARLINK-4125,2022-086C,2026-06-09T05:52:59.264832,15.08845913,.0001212,53.1637,153.1439,98.2009,261.9120,0,U,53244,999,21506,-.83271E-4,-.1613E-4,0
STARLINK-4131,2022-086E,2026-06-09T05:47:40.792704,15.08835733,.0001532,53.1651,153.0823,80.2752,279.8413,0,U,53246,999,21395,.15953E-4,-.34E-6,0
STARLINK-4061,2022-086F,2026-06-09T06:17:30.082272,15.08839961,.000154,53.1658,148.1708,97.6700,262.4466,0,U,53247,999,21513,.32579E-3,.4901E-4,0
STARLINK-4135,2022-086G,2026-06-09T06:01:37.344288,15.08827804,.0001435,53.1650,148.1465,84.6133,275.5022,0,U,53248,999,21513,.29095E-4,.175E-5,0
STARLINK-4128,2022-086H,2026-06-09T04:30:53.765856,15.08832496,.00012519,53.1651,143.3251,97.0566,263.0568,0,U,53249,999,21489,-.3455208E-5,-.343E-5,0
STARLINK-4059,2022-086J,2026-06-09T06:10:12.304704,15.08834672,.0001522,53.1642,143.0125,110.1920,249.9235,0,U,53250,999,21489,-.61162E-4,-.1261E-4,0
STARLINK-4129,2022-086K,2026-06-09T05:54:18.543744,15.08806134,.0001324,53.1646,143.0616,93.8804,266.2339,0,U,53251,999,21488,.34278E-3,.5167E-4,0
STARLINK-4132,2022-086L,2026-06-09T05:59:35.813184,15.08837514,.0001247,53.1641,142.9960,84.2335,275.8798,0,U,53252,999,21490,-.7573E-4,-.1493E-4,0
STARLINK-4133,2022-086M,2026-06-09T05:49:00.298848,15.08830179,.0001332,53.1638,143.0783,84.3181,275.7962,0,U,53253,999,21488,-.11366E-4,-.469E-5,0
STARLINK-4134,2022-086N,2026-06-09T06:01:00.321024,15.08830967,.0001401,53.1650,143.0512,83.8401,276.2750,0,U,53254,999,21490,.14226E-3,.1976E-4,0
STARLINK-4142,2022-086P,2026-06-09T05:38:26.026080,15.08812571,.0001307,53.1646,143.1134,86.0911,274.0230,0,U,53255,999,21488,-.94153E-4,-.1785E-4,0
STARLINK-4147,2022-086Q,2026-06-09T05:43:42.174912,15.08832559,.000126,53.1656,143.0949,78.5582,281.5551,0,U,53256,999,21488,.2757E-4,.151E-5,0
STARLINK-4144,2022-086R,2026-06-09T05:22:30.271008,15.08838219,.0001226,53.1660,143.1604,91.0524,269.0608,0,U,53257,999,21488,-.80335E-5,-.416E-5,0
STARLINK-4127,2022-086S,2026-06-09T05:33:06.352128,15.08832750,.0001234,53.1674,143.1268,83.5531,276.5600,0,U,53258,999,21488,.15462E-4,-.42E-6,0
STARLINK-4140,2022-086T,2026-06-09T04:29:27.241440,15.08834156,.00013055,53.1652,142.9678,80.8603,279.2536,0,U,53259,999,21488,.40050946E-4,.349E-5,0
STARLINK-4062,2022-086V,2026-06-09T05:06:36.536832,15.08839467,.0001421,53.1664,143.2103,72.5824,287.5322,0,U,53261,999,21488,.15888E-4,-.35E-6,0
