STARLINK-4377           
1 53221U 22084AJ  26160.40416651  .00000308  00000+0  25314-4 0  9990
2 53221  97.3837 219.8028 0001554 100.7213 259.4189 15.05650816213114
STARLINK-4356           
1 53224U 22084AM  26160.44569503 -.00000324  00000+0 -18492-4 0  9991
2 53224  97.3835 219.7554 0001330 134.3547 225.7789 15.05654056213115
STARLINK-4358           
1 53225U 22084AN  26160.41381955  .00000078  00000+0  94236-5 0  9997
2 53225  97.3820 220.8428 0001493  98.0113 262.1284 15.05648397213181
STARLINK-4359           
1 53226U 22084AP  26160.42908020  .00000617  00000+0  46730-4 0  9991
2 53226  97.3876 219.7672 0001508 134.0511 226.0841 15.05651819213115
STARLINK-4366           
1 53227U 22084AQ  26160.12861655 -.00021346  00000+0 -14779-2 0  9991
2 53227  97.3865 220.5958 0002555   2.8709 357.2533 15.05696803213145
STARLINK-4365           
1 53228U 22084AR  26160.12171747  .00000721  00000+0  53934-4 0  9998
2 53228  97.3854 219.5650 0001125 110.6421 249.4928 15.05654964213076
STARLINK-4367           
1 53229U 22084AS  26160.13414021  .00000547  00000+0  41903-4 0  9994
2 53229  97.3865 220.6002 0001518 106.4201 253.7193 15.05653504213147
STARLINK-4364           
1 53230U 22084AT  26160.44428475 -.00000166  00000+0 -75305-5 0  9991
2 53230  97.3839 220.9513 0001843 139.6713 220.4651 15.05654988213199
STARLINK-4370           
1 53231U 22084AU  26160.18952463  .00000420  00000+0  33118-4 0  9998
2 53231  97.3844 220.6723 0000560  88.2847 271.8444 15.05652449213154
STARLINK-4371           
1 53232U 22084AV  26160.42630914  .00000535  00000+0  41062-4 0  9994
2 53232  97.3849 219.7487 0001672 143.4267 216.7075 15.05654417213112
STARLINK-4372           
1 53233U 22084AW  26160.48479518 -.00030418  00000+0 -21375-2 0  9990
2 53233  97.3830 219.8144 0003988  50.4869 309.6710 15.05217805213126
STARLINK-4368           
1 53234U 22084AX  26160.58337963  .00146744  00000+0  39397-2 0  9990
2 53234  97.6001 221.7536 0002106 112.5231 163.0281 15.37347740  5773
STARLINK-4056           
1 53242U 22086A   26160.24742681  .00000555  00000+0  52961-4 0  9994
2 53242  53.1658 148.0480 0001384  81.7409 278.3739 15.08831087215138
STARLINK-4047           
1 53243U 22086B   26160.28557311 -.00001708  00000+0 -89264-4 0  9992
2 53243  53.1642 152.5688 0001546  63.6489 296.4661 15.08836562215092
STARLINK-4125           
1 53244U 22086C   26160.24513038 -.00001613  00000+0 -83271-4 0  9994
2 53244  53.1637 153.1439 0001212  98.2009 261.9120 15.08845913215064
STARLINK-4131           
1 53246U 22086E   26160.24144436 -.00000034  00000+0  15953-4 0  9995
2 53246  53.1651 153.0823 0001532  80.2752 279.8413 15.08835733213957
STARLINK-4061           
1 53247U 22086F   26160.26215373  .00004901  00000+0  32579-3 0  9995
2 53247  53.1658 148.1708 0001540  97.6700 262.4466 15.08839961215131
STARLINK-4135           
1 53248U 22086G   26160.25112667  .00000175  00000+0  29095-4 0  9996
2 53248  53.1650 148.1465 0001435  84.6133 275.5022 15.08827804215139
STARLINK-4128           
1 53249U 22086H   26160.18812229 -.00000343  00000+0 -34552-5 0  9994
2 53249  53.1651 143.3251 0001251  97.0566 263.0568 15.08832496214897
STARLINK-4059           
1 53250U 22086J   26160.25708686 -.00001261  00000+0 -61162-4 0  9991
2 53250  53.1642 143.0125 0001522 110.1920 249.9235 15.08834672214890
STARLINK-4129           
1 53251U 22086K   26160.24604796  .00005167  00000+0  34278-3 0  9992
2 53251  53.1646 143.0616 0001324  93.8804 266.2339 15.08806134214886
STARLINK-4132           
1 53252U 22086L   26160.24972006 -.00001493  00000+0 -75730-4 0  9994
2 53252  53.1641 142.9960 0001247  84.2335 275.8798 15.08837514214903
STARLINK-4133           
1 53253U 22086M   26160.24236457 -.00000469  00000+0 -11366-4 0  9995
2 53253  53.1638 143.0783 0001332  84.3181 275.7962 15.08830179214889
STARLINK-4134           
1 53254U 22086N   26160.25069816  .00001976  00000+0  14226-3 0  9999
2 53254  53.1650 143.0512 0001401  83.8401 276.2750 15.08830967214909
STARLINK-4142           
1 53255U 22086P   26160.23502345 -.00001785  00000+0 -94153-4 0  9995
2 53255  53.1646 143.1134 0001307  86.0911 274.0230 15.08812571214889
STARLINK-4147           
1 53256U 22086Q   26160.23868258  .00000151  00000+0  27570-4 0  9997
2 53256  53.1656 143.0949 0001260  78.5582 281.5551 15.08832559214889
STARLINK-4144           
1 53257U 22086R   26160.22396147 -.00000416  00000+0 -80335-5 0  9995
2 53257  53.1660 143.1604 0001226  91.0524 269.0608 15.08838219214885
STARLINK-4127           
1 53258U 22086S   26160.23132352 -.00000042  00000+0  15462-4 0  9995
2 53258  53.1674 143.1268 0001234  83.5531 276.5600 15.08832750214889
STARLINK-4140           
1 53259U 22086T   26160.18712085  .00000349  00000+0  40051-4 0  9998
2 53259  53.1652 142.9678 0001305  80.8603 279.2536 15.08834156214887
STARLINK-4062           
1 53261U 22086V   26160.21292288 -.00000035  00000+0  15888-4 0  9996
2 53261  53.1664 143.2103 0001421  72.5824 287.5322 15.08839467214887
